GIOVE-A                 
1 28922U 05051A   09169.29960590  .00000103  00000-0  10000-3 0  4958
2 28922  56.0724 157.3372 0005937 335.7081  24.2628  1.70183097 21584
GIOVE-B                 
1 32781U 08020A   09169.72120208  .00000107  00000-0  10000-3 0  1813
2 32781  55.9474 192.2154 0020795 219.2769 140.6420  1.70950425  7153
